STARLINK-35970          
1 66618U 25271B   26034.15672516  .00037899  00000+0  12836-2 0  9999
2 66618  53.1575 300.0398 0001117  71.9369 288.1754 15.30241235 12287
STARLINK-35951          
1 66619U 25271C   26034.46125979  .00022800  00000+0  77970-3 0  9997
2 66619  53.1575 299.1015 0002786  92.1087 268.0233 15.30192691 12322
STARLINK-35936          
1 66620U 25271D   26034.14523176  .00031389  00000+0  10675-2 0  9995
2 66620  53.1587 300.6879 0001234  66.6853 293.4278 15.30198830 12273
STARLINK-35847          
1 66621U 25271E   26034.13678612  .00024240  00000+0  82733-3 0  9994
2 66621  53.1584 300.6257 0001260  87.8661 272.2484 15.30221448 12278
STARLINK-35950          
1 66622U 25271F   26034.45914523  .00026223  00000+0  89440-3 0  9999
2 66622  53.1595 299.0879 0001069 109.3024 250.8092 15.30199541 12323
STARLINK-35920          
1 66623U 25271G   26034.43803689  .00025057  00000+0  85517-3 0  9993
2 66623  53.1585 298.9598 0001297  92.4938 267.6212 15.30204141 12321
STARLINK-35927          
1 66624U 25271H   26034.15778264  .00032737  00000+0  11117-2 0  9990
2 66624  53.1565 300.0504 0001255  82.1828 277.9315 15.30225363 12282
STARLINK-35929          
1 66625U 25271J   26034.16200307  .00031012  00000+0  10546-2 0  9990
2 66625  53.1572 300.0801 0000912 102.1244 257.9859 15.30205520 12289
STARLINK-35902          
1 66626U 25271K   26033.16339933  .00027650  00000+0  94211-3 0  9993
2 66626  53.1581 305.2226 0001336  87.1105 273.0049 15.30203441 12120
STARLINK-35904          
1 66627U 25271L   26034.58335648  .00066426  00000+0  22380-2 0  9991
2 66627  53.1593 298.4439 0001215 109.6664 249.9859 15.30155992  5848
STARLINK-35862          
1 66628U 25271M   26034.12201215  .00023147  00000+0  79126-3 0  9998
2 66628  53.1603 300.5401 0000996 106.1491 253.9620 15.30197566 12279
STARLINK-35949          
1 66630U 25271P   26034.43170755  .00041689  00000+0  14099-2 0  9997
2 66630  53.1580 298.9170 0001583  78.6523 281.4656 15.30243435 12329
STARLINK-35965          
1 66631U 25271Q   26034.16094288  .00035687  00000+0  12110-2 0  9997
2 66631  53.1578 300.0721 0000848   7.6290 352.4723 15.30208064 12288
STARLINK-35973          
1 66632U 25271R   26034.58335648  .00064539  00000+0  21751-2 0  9991
2 66632  53.1582 298.3532 0001205 104.6999 301.4821 15.30158495  5743
STARLINK-35948          
1 66633U 25271S   26034.58335648  .00062161  00000+0  20962-2 0  9994
2 66633  53.1576 298.3184 0000956 104.1727 319.4634 15.30155787  5894
STARLINK-35967          
1 66634U 25271T   26034.58335648  .00053966  00000+0  18231-2 0  9994
2 66634  53.1567 298.2259 0001128  94.4374  15.7315 15.30163339  5892
STARLINK-35955          
1 66635U 25271U   26033.73749240  .00018891  00000+0  64717-3 0  9997
2 66635  53.1601 302.4066 0001496  69.7937 290.3225 15.30257377 12215
STARLINK-35968          
1 66636U 25271V   26034.46230701  .00023338  00000+0  79778-3 0  9991
2 66636  53.1591 299.1070 0001162 103.8124 256.3006 15.30192656 12328
STARLINK-35953          
1 66637U 25271W   26034.44647957  .00019914  00000+0  68252-3 0  9995
2 66637  53.1592 299.0100 0001493  89.8819 270.2353 15.30207000 12324
STARLINK-35972          
1 66638U 25271X   26034.46864103  .00034520  00000+0  11725-2 0  9994
2 66638  53.1583 299.1454 0001600  90.4733 269.6451 15.30193636 12321
STARLINK-35908          
1 66639U 25271Y   26034.45175459  .00024090  00000+0  82304-3 0  9996
2 66639  53.1607 299.0386 0001002  95.7657 264.3459 15.30192473 12329
STARLINK-35921          
1 66640U 25271Z   26034.58335648  .00060695  00000+0  20475-2 0  9991
2 66640  53.1578 298.0512 0001236  92.8206 104.5878 15.30156116  5848
STARLINK-35923          
1 66641U 25271AA  26033.23609654  .00046301  00000+0  15643-2 0  9993
2 66641  53.1576 304.9598 0001237  84.4248 275.6893 15.30227672 12135
STARLINK-35926          
1 66642U 25271AB  26033.68168846  .00038364  00000+0  12992-2 0  9990
2 66642  53.1604 302.7661 0001888  58.8880 301.2306 15.30238573 12164
STARLINK-35918          
1 66643U 25271AC  26034.43592637  .00026075  00000+0  88958-3 0  9996
2 66643  53.1587 298.9405 0001399  89.1114 271.0047 15.30193923 12324
STARLINK-35938          
1 66644U 25271AD  26033.16761857  .00032479  00000+0  11037-2 0  9996
2 66644  53.1587 305.2440 0001379  92.2401 267.8758 15.30205898 12123
SHENZHOU-22             
1 66645U 25272A   26034.52706412  .00018163  00000+0  22908-3 0  9999
2 66645  41.4674  55.7893 0006164 350.4992   9.5728 15.59144861267641
COSMOS 2597 (RODNIK-S *)
1 66647U 25273A   26034.61547127  .00000032  00000+0  15743-3 0  9993
2 66647  82.4954 253.5800 0011946 144.6411 215.5463 12.42798578  8702
COSMOS 2598 (RODNIK-S *)
1 66648U 25273B   26034.58746266  .00000033  00000+0  16369-3 0  9991
2 66648  82.4993 253.5858 0011227 116.8541 243.3688 12.42914097  8700
COSMOS 2599 (RODNIK-S *)
1 66649U 25273C   26034.56249020  .00000050  00000+0  28973-3 0  9999
2 66649  82.4991 253.6844 0016249 134.1180 226.1239 12.42892106  8691
BEE-1000                
1 66650U 25274A   26034.33815309  .00004001  00000+0  39903-3 0  9991
2 66650  97.7430 325.5821 0013719  80.1130 280.1637 14.92050777 10241
2025-274B               
1 66651U 25274B   26034.39697332  .00004186  00000+0  41465-3 0  9992
2 66651  97.7423 325.6542 0013920  78.1804 282.0976 14.92291630 10257
2025-274C               
1 66652U 25274C   26034.52756121  .00003493  00000+0  34685-3 0  9996
2 66652  97.7427 325.7948 0013481  83.2888 276.9865 14.92303346 10273
2025-274D               
1 66653U 25274D   26034.59572917  .00002518  00000+0  25208-3 0  9991
2 66653  97.7427 325.8584 0014389  80.3792 279.9052 14.92221292 10282
JACK E                  
1 66654U 25274E   26034.38591203  .00002475  00000+0  24655-3 0  9995
2 66654  97.7431 325.6737 0015003  82.0472 278.2449 14.92433224 10253
CAS500-3                
1 66655U 25274F   26034.36357929  .00000021  00000+0  81200-5 0  9995
2 66655  97.7394 325.4998 0006003 204.5099 155.5833 14.88239819 10247
2025-274G               
1 66656U 25274G   26034.37665752  .00002823  00000+0  27874-3 0  9990
2 66656  97.7433 325.6841 0015672  83.1723 277.1279 14.92660814 10252
SPIRONE                 
1 66657U 25274H   26034.30140669  .00003250  00000+0  31882-3 0  9998
2 66657  97.7431 325.6270 0014051  97.9972 262.2842 14.92838284 10244
2025-274J               
1 66658U 25274J   26034.29098703  .00005947  00000+0  57343-3 0  9993
2 66658  97.7432 325.6406 0014752  99.9447 260.3438 14.93187959 10241
JACK K                  
1 66659U 25274K   26034.28541108  .00003533  00000+0  34308-3 0  9990
2 66659  97.7431 325.6502 0015312 101.9660 258.3277 14.93167697 10247
K-HERO                  
1 66660U 25274L   26034.34558071  .00003471  00000+0  33598-3 0  9997
2 66660  97.7433 325.7285 0015830 102.4894 257.8098 14.93311769 10257
SNUGLITE-III            
1 66661U 25274M   26034.33965334  .00002686  00000+0  26046-3 0  9998
2 66661  97.7429 325.7337 0016372 103.6894 256.6150 14.93415531 10254
2025-274N               
1 66662U 25274N   26034.33658977  .00003020  00000+0  29153-3 0  9996
2 66662  97.7430 325.7390 0016643 103.1985 257.1093 14.93508215 10257
SOYUZ-MS 28             
1 66664U 25275A   26034.56592394  .00010230  00000+0  19757-3 0  9994
2 66664  51.6309 241.0439 0011068  60.8200 299.3894 15.48366668  1287
FORMOSAT-8A             
1 66666U 25276A   26034.21652246  .00002770  00000+0  21932-3 0  9990
2 66666  97.6547 110.4218 0006701  50.6104 309.5713 15.01392101  9962
PELICAN-5               
1 66667U 25276B   26034.21582814  .00004887  00000+0  24377-3 0  9991
2 66667  97.4355 110.0798 0004545  91.9942 268.1813 15.17972369 10082
TRANSPORTER-15C         
1 66668U 25276C   26034.14418345  .00028300  00000+0  13129-2 0  9999
2 66668  97.4194 109.8980 0008583 120.5465 239.6618 15.19972743 10071
TRANSPORTER-15D         
1 66669U 25276D   26034.59929413  .00029436  00000+0  13610-2 0  9998
2 66669  97.4221 110.3747 0008571 122.0719 238.1349 15.20080583 10144
HUNITY                  
1 66670U 25276E   26034.20860862  .00027723  00000+0  12903-2 0  9991
2 66670  97.4228 109.9888 0008353 123.0478 237.1560 15.19869303 10084
TRANSPORTER-15F         
1 66671U 25276F   26034.42536054  .00014157  00000+0  68970-3 0  9992
2 66671  97.4352 110.2618 0007237 106.5082 253.6947 15.18433608 10116
BRO-17                  
1 66672U 25276G   26034.45703306  .00003283  00000+0  16953-3 0  9994
2 66672  97.4330 110.1986 0008387 104.4177 255.7988 15.16972916 10115
TRANSPORTER-15H         
1 66673U 25276H   26034.15692274  .00016922  00000+0  81425-3 0  9993
2 66673  97.4298 109.9593 0008221 120.0313 240.1738 15.18819395 10071
BRO-20                  
1 66674U 25276J   26034.45139521  .00003466  00000+0  17806-3 0  9999
2 66674  97.4307 110.1869 0007963 107.9040 252.3063 15.17122445 10119
TRANSPORTER-15K         
1 66675U 25276K   26034.43149645  .00012049  00000+0  59222-3 0  9991
2 66675  97.4317 110.2242 0007320 110.7903 249.4116 15.18162724 10115
TRANSPORTER-15L         
1 66676U 25276L   26034.18190381  .00006020  00000+0  30364-3 0  9995
2 66676  97.4319 109.9480 0007560 109.3319 250.8733 15.17478459 10078
TRANSPORTER-15M         
1 66677U 25276M   26034.14408108  .00014883  00000+0  71406-3 0  9999
2 66677  97.4323 109.9928 0006076 116.9758 243.2098 15.18962041 10079
LEMUR-2-DEANANDMAEVE    
1 66678U 25276N   26034.63845061  .00009397  00000+0  46830-3 0  9994
2 66678  97.4352 110.4366 0007308 103.5232 256.6817 15.17746645 10147
LILIUM-2                
1 66679U 25276P   26034.45322218  .00003800  00000+0  19517-3 0  9994
2 66679  97.4298 110.1767 0007575 109.0773 251.1282 15.17067835 10116
LEMUR-2-DEANANDMAEVE    
1 66680U 25276Q   26034.64154358  .00006938  00000+0  34885-3 0  9995
2 66680  97.4345 110.4235 0007490 102.7667 257.4404 15.17530061 10146
